GPS BIIR-2  (PRN 13)    
1 24876U 97035A   20063.24270691  .00000023  00000-0  00000-0 0  9998
2 24876  55.4559 188.3008 0039542  64.2463 296.1423  2.00564899165886
GPS BIIR-3  (PRN 11)    
1 25933U 99055A   20063.57303890 -.00000048  00000-0  00000+0 0  9998
2 25933  52.2636  34.5711 0156630 112.8333  69.4607  2.00558290149503
GPS BIIR-4  (PRN 20)    
1 26360U 00025A   20064.27572972  .00000004  00000-0  00000+0 0  9990
2 26360  53.4675 113.5507 0049328 151.8726 211.9502  2.00568219145213
GPS BIIR-5  (PRN 28)    
1 26407U 00040A   20063.63320927 -.00000007  00000-0  00000+0 0  9993
2 26407  56.0726 306.3436 0188525 278.9529 305.1872  2.00564621143878
GPS BIIR-6  (PRN 14)    
1 26605U 00071A   20064.43773182  .00000010  00000-0  00000+0 0  9994
2 26605  55.0316 185.5972 0112533 249.9319 109.4287  2.00569627141497
GPS BIIR-8  (PRN 16)    
1 27663U 03005A   20063.89064494 -.00000004  00000-0  00000+0 0  9991
2 27663  56.1294 306.1166 0113304  33.8995 142.6661  2.00558071125243
GPS BIIR-9  (PRN 21)    
1 27704U 03010A   20061.19988852 -.00000027  00000-0  00000-0 0  9993
2 27704  54.5509  57.4255 0250498 282.1000  77.5456  2.00577790124007
GPS BIIR-10 (PRN 22)    
1 28129U 03058A   20063.43589731 -.00000003  00000-0  00000-0 0  9993
2 28129  53.2778 116.3214 0073559 289.8491  69.4286  2.00576583118724
GPS BIIR-11 (PRN 19)    
1 28190U 04009A   20063.67154226 -.00000069  00000-0  00000-0 0  9993
2 28190  56.2825   6.9088 0089885  89.7353  81.6077  2.00563811116928
GPS BIIR-12 (PRN 23)    
1 28361U 04023A   20062.56184788  .00000015  00000-0  00000+0 0  9991
2 28361  54.0579 179.7722 0137339 235.0443 125.7765  2.00565138114979
GPS BIIR-13 (PRN 02)    
1 28474U 04045A   20063.54311698 -.00000013  00000-0  00000-0 0  9991
2 28474  54.9016  57.1752 0200198 265.3198  90.7235  2.00566799112366
GPS BIIRM-1 (PRN 17)    
1 28874U 05038A   20062.16069414 -.00000071  00000-0  00000+0 0  9994
2 28874  56.3909   4.3459 0135986 265.5370 275.6990  2.00565753105735
GPS BIIRM-2 (PRN 31)    
1 29486U 06042A   20063.31191538  .00000080  00000-0  00000-0 0  9991
2 29486  54.8991 242.6231 0096265   5.7799 203.7113  2.00549898 98360
GPS BIIRM-3 (PRN 12)    
1 29601U 06052A   20062.96293136 -.00000008  00000-0  00000-0 0  9999
2 29601  56.1153 305.0718 0078155  63.1534 297.6991  2.00556374 97330
GPS BIIRM-4 (PRN 15)    
1 32260U 07047A   20064.26607425 -.00000001  00000-0  00000+0 0  9996
2 32260  53.1812 175.1483 0120049  49.0040 312.0197  2.00566331 90780
GPS BIIRM-5 (PRN 29)    
1 32384U 07062A   20063.83467559 -.00000070  00000-0  00000-0 0  9991
2 32384  56.4833   4.9456 0009321 112.1363  65.5558  2.00570421 89496
GPS BIIRM-6 (PRN 07)    
1 32711U 08012A   20062.69029245  .00000078  00000-0  00000-0 0  9997
2 32711  54.6439 241.7765 0135445 222.3448 136.6000  2.00561457 87692
GPS BIIRM-8 (PRN 05)    
1 35752U 09043A   20060.66417314 -.00000008  00000-0  00000+0 0  9996
2 35752  54.5376 119.4491 0056017  43.6471 324.7337  2.00570996 77222
GPS BIIF-1  (PRN 25)    
1 36585U 10022A   20063.75561571  .00000004  00000-0  00000+0 0  9993
2 36585  55.3895 301.1520 0089813  50.9916 133.8421  2.00574131 71525
GPS BIIF-2  (PRN 01)    
1 37753U 11036A   20063.87895534 -.00000003  00000-0  00000+0 0  9999
2 37753  56.1045  61.4326 0093135  42.1128 319.2232  2.00568597 63215
GPS BIIF-3  (PRN 24)    
1 38833U 12053A   20062.87219759  .00000075  00000-0  00000-0 0  9996
2 38833  53.6840 237.7183 0094323  36.8675 323.7700  2.00564612 53477
GPS BIIF-4  (PRN 27)    
1 39166U 13023A   20062.72857230 -.00000073  00000-0  00000-0 0  9999
2 39166  56.0587   1.0088 0078583  27.9700 332.4566  2.00565604 49797
GPS BIIF-5  (PRN 30)    
1 39533U 14008A   20063.23139631  .00000076  00000-0  00000+0 0  9997
2 39533  53.8040 243.1276 0043635 195.0366 164.8339  2.00562271 44165
GPS BIIF-6  (PRN 06)    
1 39741U 14026A   20062.51269528 -.00000010  00000-0  00000-0 0  9997
2 39741  56.0782  61.0136 0021367 293.5380  66.2656  2.00553724 42432
GPS BIIF-7  (PRN 09)    
1 40105U 14045A   20063.09499739  .00000013  00000-0  00000-0 0  9999
2 40105  54.5840 180.1967 0014807 104.1919 255.9628  2.00550983 40031
GPS BIIF-8  (PRN 03)    
1 40294U 14068A   20062.47246930 -.00000005  00000-0  00000+0 0  9998
2 40294  55.2892 121.1351 0024989  36.9855 323.2550  2.00571633 39104
GPS BIIF-9  (PRN 26)    
1 40534U 15013A   20063.10948567  .00000002  00000-0  00000-0 0  9999
2 40534  54.3087 299.2460 0046449   8.5620 351.5727  2.00574771 35758
GPS BIIF-10 (PRN 08)    
1 40730U 15033A   20063.26505005 -.00000073  00000-0  00000+0 0  9990
2 40730  55.5777   0.2084 0052829 348.6098  11.2789  2.00568505 33948
GPS BIIF-11 (PRN 10)    
1 41019U 15062A   20062.81770361 -.00000003  00000-0  00000-0 0  9996
2 41019  55.2878 120.9446 0055530 209.6766 150.0747  2.00564522 31758
GPS BIIF-12 (PRN 32)    
1 41328U 16007A   20063.40675694  .00000011  00000-0  00000-0 0  9996
2 41328  54.8221 180.6428 0037903 218.9774 140.7384  2.00561598 29825
GPS BIII-1  (PRN 04)    
1 43873U 18109A   20063.55790674  .00000013  00000-0  00000-0 0  9992
2 43873  55.0027 182.8851 0007127 222.5645 139.0343  2.00558639  9057
